[{"OBJECT_NAME":"STARLINK-30106","OBJECT_ID":"2023-056C","EPOCH":"2026-03-09T22:00:01.999584","MEAN_MOTION":15.26749083,"ECCENTRICITY":0.00016875,"INCLINATION":43.003,"RA_OF_ASC_NODE":207.2618,"ARG_OF_PERICENTER":291.4212,"MEAN_ANOMALY":266.2264,"EPHEMERIS_TYPE":0,"CLASSIFICATION_TYPE":"U","NORAD_CAT_ID":56288,"ELEMENT_SET_NO":999,"REV_AT_EPOCH":577,"BSTAR":-0.00051497468,"MEAN_MOTION_DOT":-0.00014051,"MEAN_MOTION_DDOT":0},{"OBJECT_NAME":"ION SCV-013","OBJECT_ID":"2023-174AW","EPOCH":"2026-03-09T22:59:29.755392","MEAN_MOTION":15.04632564,"ECCENTRICITY":0.00998876,"INCLINATION":97.6297,"RA_OF_ASC_NODE":125.3193,"ARG_OF_PERICENTER":172.5348,"MEAN_ANOMALY":187.7394,"EPHEMERIS_TYPE":0,"CLASSIFICATION_TYPE":"U","NORAD_CAT_ID":58300,"ELEMENT_SET_NO":999,"REV_AT_EPOCH":12661,"BSTAR":0.00023880169,"MEAN_MOTION_DOT":3.68e-5,"MEAN_MOTION_DDOT":0}]
